{
    "links": {
        "self": "http://www.neowsapp.com/rest/v1/neo/3773053?api_key=iIulBulltgU6a56xZRHN4H3l9WmuAYTsLGpBGhQ2"
    },
    "id": "3773053",
    "neo_reference_id": "3773053",
    "name": "(2017 FM102)",
    "designation": "2017 FM102",
    "nasa_jpl_url": "http://ssd.jpl.nasa.gov/sbdb.cgi?sstr=3773053",
    "absolute_magnitude_h": 21.9,
    "estimated_diameter": {
        "kilometers": {
            "estimated_diameter_min": 0.1108038821,
            "estimated_diameter_max": 0.2477650126
        },
        "meters": {
            "estimated_diameter_min": 110.8038821264,
            "estimated_diameter_max": 247.7650126055
        },
        "miles": {
            "estimated_diameter_min": 0.068850319,
            "estimated_diameter_max": 0.1539539936
        },
        "feet": {
            "estimated_diameter_min": 363.5298086356,
            "estimated_diameter_max": 812.8773639568
        }
    },
    "is_potentially_hazardous_asteroid": false,
    "close_approach_data": [
        {
            "close_approach_date": "2017-04-09",
            "close_approach_date_full": "2017-Apr-09 22:56",
            "epoch_date_close_approach": 1491778560000,
            "relative_velocity": {
                "kilometers_per_second": "25.318930979",
                "kilometers_per_hour": "91148.1515244554",
                "miles_per_hour": "56635.9167069595"
            },
            "miss_distance": {
                "astronomical": "0.2431017962",
                "lunar": "94.5665987218",
                "kilometers": "36367510.904694094",
                "miles": "22597723.4058187372"
            },
            "orbiting_body": "Earth"
        },
        {
            "close_approach_date": "2018-11-20",
            "close_approach_date_full": "2018-Nov-20 08:19",
            "epoch_date_close_approach": 1542701940000,
            "relative_velocity": {
                "kilometers_per_second": "46.3422074065",
                "kilometers_per_hour": "166831.946663539",
                "miles_per_hour": "103662.8837476862"
            },
            "miss_distance": {
                "astronomical": "0.0399623694",
                "lunar": "15.5453616966",
                "kilometers": "5978285.342393178",
                "miles": "3714734.2572467364"
            },
            "orbiting_body": "Merc"
        },
        {
            "close_approach_date": "2018-12-15",
            "close_approach_date_full": "2018-Dec-15 11:46",
            "epoch_date_close_approach": 1544874360000,
            "relative_velocity": {
                "kilometers_per_second": "30.3810457551",
                "kilometers_per_hour": "109371.7647182419",
                "miles_per_hour": "67959.3612495098"
            },
            "miss_distance": {
                "astronomical": "0.4586115121",
                "lunar": "178.3998782069",
                "kilometers": "68607305.367639227",
                "miles": "42630602.7481342526"
            },
            "orbiting_body": "Earth"
        },
        {
            "close_approach_date": "2020-03-24",
            "close_approach_date_full": "2020-Mar-24 19:22",
            "epoch_date_close_approach": 1585077720000,
            "relative_velocity": {
                "kilometers_per_second": "36.6265656258",
                "kilometers_per_hour": "131855.6362529779",
                "miles_per_hour": "81929.9646484129"
            },
            "miss_distance": {
                "astronomical": "0.1816252987",
                "lunar": "70.6522411943",
                "kilometers": "27170757.823633769",
                "miles": "16883126.0306492522"
            },
            "orbiting_body": "Earth"
        }
    ],
    "orbital_data": {
        "orbit_id": "6",
        "orbit_determination_date": "2019-12-04 07:16:16",
        "first_observation_date": "2017-03-26",
        "last_observation_date": "2017-04-03",
        "data_arc_in_days": 8,
        "observations_used": 47,
        "orbit_uncertainty": "8",
        "minimum_orbit_intersection": ".0614112",
        "jupiter_tisserand_invariant": "4.540",
        "epoch_osculation": "2457841.5",
        "eccentricity": ".8142390858339338",
        "semi_major_axis": "1.289668086075221",
        "inclination": "29.13512315176554",
        "ascending_node_longitude": "17.62202847098068",
        "orbital_period": "534.9526661611505",
        "perihelion_distance": ".2395699226401341",
        "perihelion_argument": "306.1563251127994",
        "aphelion_distance": "2.339766249510309",
        "perihelion_time": "2457901.582920532930",
        "mean_anomaly": "319.5667939238965",
        "mean_motion": ".6729567357489394",
        "equinox": "J2000",
        "orbit_class": {
            "orbit_class_type": "APO",
            "orbit_class_description": "Near-Earth asteroid orbits which cross the Earth’s orbit similar to that of 1862 Apollo",
            "orbit_class_range": "a (semi-major axis) > 1.0 AU; q (perihelion) < 1.017 AU"
        }
    },
    "is_sentry_object": false
}